QIANFAN-81              
1 63167U 25046J   25316.78956716  .00000160  00000+0  22918-3 0  9997
2 63167  88.9756 322.9752 0013922 200.6125 159.4466 13.50994156 43444
QIANFAN-82              
1 63168U 25046K   25316.82310468  .00000126  00000+0  17677-3 0  9999
2 63168  88.9755 323.0155 0011834 207.9622 152.0894 13.50974650 43435
QIANFAN-83              
1 63169U 25046L   25316.79771718  .00000102  00000+0  11643-3 0  9996
2 63169  88.9756 322.8533 0013495 194.6620 165.4148 13.61968302 43528
QIANFAN-84              
1 63170U 25046M   25316.77707916 -.00000007  00000+0 -30175-4 0  9993
2 63170  88.9751 323.1532 0014910 205.9259 154.1146 13.50986375 43357
QIANFAN-85              
1 63171U 25046N   25316.77365911  .00000136  00000+0  19185-3 0  9997
2 63171  88.9755 323.0253 0012210 207.1386 152.9128 13.50979094 43421
QIANFAN-86              
1 63172U 25046P   25316.78196095  .00000125  00000+0  17429-3 0  9991
2 63172  88.9757 322.8859 0009987 210.3357 149.7217 13.50976089 43507
QIANFAN-87              
1 63173U 25046Q   25316.82726111  .00000074  00000+0  96236-4 0  9992
2 63173  88.9753 322.9940 0010784 205.3040 154.7584 13.50970356 43443
QIANFAN-88              
1 63174U 25046R   25316.69557676  .00000108  00000+0  14932-3 0  9996
2 63174  88.9756 322.9613 0010936 214.7560 145.2878 13.50973929 43455
